NORAD_CAT_ID,OBJECT_NAME,OBJECT_TYPE,EPOCH,MEAN_MOTION,ECCENTRICITY,INCLINATION,RA_OF_ASC_NODE,ARG_OF_PERICENTER,MEAN_ANOMALY,BSTAR,MEAN_MOTION_DOT,MEAN_MOTION_DDOT,TLE_LINE0,TLE_LINE1,TLE_LINE2,SEMIMAJOR_AXIS,PERIOD,APOGEE,PERIGEE,DECAYED
52637.0,STARLINK-3961,PAYLOAD,2023-06-22 18:58:47,15.08834007,8.08e-05,53.218,27.4356,89.0345,271.074,0.00035246,5.325e-05,0.0,0 STARLINK-3961,1 52637U 22052AR  23173.79082270  .00005325  00000-0  35246-3 0  9993,2 52637  53.2180  27.4356 0000808  89.0345 271.0740 15.08834007 61910,6917.899,95.438,540.323,539.205,0.0
52637.0,STARLINK-3961,PAYLOAD,2023-06-22 23:44:55,15.08847871,9.64e-05,53.218,26.5429,105.1867,254.9232,8.2057e-05,1.019e-05,0.0,0 STARLINK-3961,1 52637U 22052AR  23173.98953400  .00001019  00000-0  82057-4 0  9995,2 52637  53.2180  26.5429 0000964 105.1867 254.9232 15.08847871 61945,6917.856,95.437,540.388,539.054,0.0
52637.0,STARLINK-3961,PAYLOAD,2023-06-23 18:49:33,15.08844848,0.0001143,53.2186,22.9736,97.5073,262.6049,0.00010544,1.391e-05,0.0,0 STARLINK-3961,1 52637U 22052AR  23174.78441634  .00001391  00000-0  10544-3 0  9999,2 52637  53.2186  22.9736 0001143  97.5073 262.6049 15.08844848 62062,6917.866,95.437,540.521,538.94,0.0
52637.0,STARLINK-3961,PAYLOAD,2023-06-24 17:04:57,15.08840116,0.0001082,53.2174,18.8147,84.7788,275.3327,0.00010437,1.374e-05,0.0,0 STARLINK-3961,1 52637U 22052AR  23175.71177898  .00001374  00000-0  10437-3 0  9993,2 52637  53.2174  18.8147 0001082  84.7788 275.3327 15.08840116 62202,6917.88,95.438,540.494,538.997,0.0
52637.0,STARLINK-3961,PAYLOAD,2023-06-25 23:17:16,15.08847142,0.0001153,53.218,13.164,84.128,275.9843,0.00011695,1.574e-05,0.0,0 STARLINK-3961,1 52637U 22052AR  23176.97033523  .00001574  00000-0  11695-3 0  9997,2 52637  53.2180  13.1640 0001153  84.1280 275.9843 15.08847142 62390,6917.859,95.437,540.521,538.926,0.0
52637.0,STARLINK-3961,PAYLOAD,2023-06-26 08:49:36,15.08835199,0.0001248,53.2172,11.3816,97.1201,262.9933,4.2399e-05,3.87e-06,0.0,0 STARLINK-3961,1 52637U 22052AR  23177.36778080  .00000387  00000-0  42399-4 0  9992,2 52637  53.2172  11.3816 0001248  97.1201 262.9933 15.08835199 62450,6917.895,95.438,540.623,538.897,0.0
52637.0,STARLINK-3961,PAYLOAD,2023-06-27 18:12:43,15.0881017,0.000125,53.2175,5.138,86.2705,273.843,0.00092591,0.00014467,0.0,0 STARLINK-3961,1 52637U 22052AR  23178.75883846  .00014467  00000-0  92591-3 0  9995,2 52637  53.2175   5.1380 0001250  86.2705 273.8430 15.08810170 62669,6917.972,95.439,540.701,538.972,0.0
52637.0,STARLINK-3961,PAYLOAD,2023-06-28 05:20:24,15.08843118,0.000105,53.2174,3.0557,90.3577,269.7536,6.509e-05,7.48e-06,0.0,0 STARLINK-3961,1 52637U 22052AR  23179.22250180  .00000748  00000-0  65090-4 0  9999,2 52637  53.2174   3.0557 0001050  90.3577 269.7536 15.08843118 62739,6917.871,95.437,540.462,539.009,0.0
52637.0,STARLINK-3961,PAYLOAD,2023-06-28 18:03:29,15.08838112,0.0001072,53.2172,0.6769,83.5879,276.5236,0.00013997,1.94e-05,0.0,0 STARLINK-3961,1 52637U 22052AR  23179.75242655  .00001940  00000-0  13997-3 0  9998,2 52637  53.2172   0.6769 0001072  83.5879 276.5236 15.08838112 62818,6917.886,95.438,540.493,539.01,0.0
52637.0,STARLINK-3961,PAYLOAD,2023-06-29 19:29:39,15.08843973,0.0001,53.2169,355.9185,78.0376,282.0728,8.0191e-05,9.89e-06,0.0,0 STARLINK-3961,1 52637U 22052AR  23180.81226477  .00000989  00000-0  80191-4 0  9994,2 52637  53.2169 355.9185 0001000  78.0376 282.0728 15.08843973 62970,6917.868,95.437,540.425,539.041,0.0
52637.0,STARLINK-3961,PAYLOAD,2023-07-01 17:35:49,15.08861645,0.0001235,53.218,347.2949,79.2309,280.8822,-0.00010848,-2.015e-05,0.0,0 STARLINK-3961,1 52637U 22052AR  23182.73321667 -.00002015  00000-0 -10848-3 0  9999,2 52637  53.2180 347.2949 0001235  79.2309 280.8822 15.08861645 63264,6917.814,95.436,540.534,538.825,0.0
52637.0,STARLINK-3961,PAYLOAD,2023-07-02 15:51:14,15.08837865,0.0001141,53.218,343.1319,86.658,273.4543,9.7389e-05,1.262e-05,0.0,0 STARLINK-3961,1 52637U 22052AR  23183.66058892  .00001262  00000-0  97389-4 0  9996,2 52637  53.2180 343.1319 0001141  86.6580 273.4543 15.08837865 63400,6917.887,95.438,540.541,538.963,0.0
52637.0,STARLINK-3961,PAYLOAD,2023-07-03 17:17:24,15.08844655,0.0001001,53.2177,338.3746,92.3372,267.7735,6.2242e-05,7.03e-06,0.0,0 STARLINK-3961,1 52637U 22052AR  23184.72042429  .00000703  00000-0  62242-4 0  9992,2 52637  53.2177 338.3746 0001001  92.3372 267.7735 15.08844655 63565,6917.866,95.437,540.424,539.039,0.0
52637.0,STARLINK-3961,PAYLOAD,2023-07-04 17:08:12,15.08839614,8.92e-05,53.2177,333.9143,85.6184,274.491,2.4352e-05,1e-06,0.0,0 STARLINK-3961,1 52637U 22052AR  23185.71402948  .00000100  00000-0  24352-4 0  9999,2 52637  53.2177 333.9143 0000892  85.6184 274.4910 15.08839614 63716,6917.882,95.438,540.364,539.129,0.0
52637.0,STARLINK-3961,PAYLOAD,2023-07-06 02:31:18,15.08838912,8.84e-05,53.2182,327.6702,88.0586,272.0508,5.4104e-05,5.73e-06,0.0,0 STARLINK-3961,1 52637U 22052AR  23187.10507152  .00000573  00000-0  54104-4 0  9999,2 52637  53.2182 327.6702 0000884  88.0586 272.0508 15.08838912 63927,6917.884,95.438,540.36,539.137,0.0
52637.0,STARLINK-3961,PAYLOAD,2023-07-06 18:25:09,15.08846899,9.93e-05,53.2186,324.6956,78.5876,281.5228,0.00012159,1.648e-05,0.0,0 STARLINK-3961,1 52637U 22052AR  23187.76746591  .00001648  00000-0  12159-3 0  9990,2 52637  53.2186 324.6956 0000993  78.5876 281.5228 15.08846899 64025,6917.859,95.437,540.411,539.037,0.0
52637.0,STARLINK-3961,PAYLOAD,2023-07-07 08:43:37,15.08839638,9.19e-05,53.2183,322.0201,94.9115,265.1982,7.5923e-05,9.21e-06,0.0,0 STARLINK-3961,1 52637U 22052AR  23188.36363143  .00000921  00000-0  75923-4 0  9997,2 52637  53.2183 322.0201 0000919  94.9115 265.1982 15.08839638 64111,6917.881,95.438,540.382,539.111,0.0
52637.0,STARLINK-3961,PAYLOAD,2023-07-08 14:55:57,15.08844902,6.62e-05,53.2172,316.3688,78.7256,281.381,8.3317e-06,-1.55e-06,0.0,0 STARLINK-3961,1 52637U 22052AR  23189.62218816 -.00000155  00000-0  83317-5 0  9990,2 52637  53.2172 316.3688 0000662  78.7256 281.3810 15.08844902 64306,6917.865,95.437,540.188,539.272,0.0
52637.0,STARLINK-3961,PAYLOAD,2023-07-09 11:35:58,15.0883169,0.0001061,53.2183,312.5047,81.8168,278.2944,-2.7014e-05,-7.18e-06,0.0,0 STARLINK-3961,1 52637U 22052AR  23190.48331897 -.00000718  00000-0 -27014-4 0  9998,2 52637  53.2183 312.5047 0001061  81.8168 278.2944 15.08831690 64433,6917.906,95.438,540.505,539.037,0.0
52637.0,STARLINK-3961,PAYLOAD,2023-07-10 08:15:59,15.08838131,0.0001027,53.2185,308.6383,82.3433,277.7676,4.1692e-05,3.76e-06,0.0,0 STARLINK-3961,1 52637U 22052AR  23191.34443426  .00000376  00000-0  41692-4 0  9992,2 52637  53.2185 308.6383 0001027  82.3433 277.7676 15.08838131 64564,6917.886,95.438,540.462,539.041,0.0
52637.0,STARLINK-3961,PAYLOAD,2023-07-10 17:48:17,15.08848427,8.03e-05,53.2174,306.8528,75.5054,284.6027,0.00010455,1.377e-05,0.0,0 STARLINK-3961,1 52637U 22052AR  23191.74186485  .00001377  00000-0  10455-3 0  9999,2 52637  53.2174 306.8528 0000803  75.5054 284.6027 15.08848427 64620,6917.855,95.437,540.275,539.164,0.0
52637.0,STARLINK-3961,PAYLOAD,2023-07-11 00:09:50,15.08838537,8.74e-05,53.2186,305.6617,78.1189,281.9901,8.2074e-05,1.019e-05,0.0,0 STARLINK-3961,1 52637U 22052AR  23192.00683147  .00001019  00000-0  82074-4 0  9996,2 52637  53.2186 305.6617 0000874  78.1189 281.9901 15.08838537 64661,6917.885,95.438,540.354,539.145,0.0
52637.0,STARLINK-3961,PAYLOAD,2023-07-11 08:06:46,15.08829681,8.21e-05,53.2182,304.1781,75.0469,285.0614,5.9072e-05,6.52e-06,0.0,0 STARLINK-3961,1 52637U 22052AR  23192.33803954  .00000652  00000-0  59072-4 0  9996,2 52637  53.2182 304.1781 0000821  75.0469 285.0614 15.08829681 64714,6917.912,95.438,540.345,539.209,0.0
52637.0,STARLINK-3961,PAYLOAD,2023-07-11 17:39:04,15.08842613,9.88e-05,53.2175,302.3929,85.8971,274.2134,0.00011509,1.544e-05,0.0,0 STARLINK-3961,1 52637U 22052AR  23192.73547059  .00001544  00000-0  11509-3 0  9994,2 52637  53.2175 302.3929 0000988  85.8971 274.2134 15.08842613 64774,6917.872,95.437,540.421,539.054,0.0
52637.0,STARLINK-3961,PAYLOAD,2023-07-12 00:00:37,15.08836661,9.06e-05,53.2177,301.2016,84.2541,275.8555,5.8093e-05,6.37e-06,0.0,0 STARLINK-3961,1 52637U 22052AR  23193.00043551  .00000637  00000-0  58093-4 0  9995,2 52637  53.2177 301.2016 0000906  84.2541 275.8555 15.08836661 64812,6917.891,95.438,540.382,539.129,0.0
52637.0,STARLINK-3961,PAYLOAD,2023-07-13 15:45:16,15.08843568,9.31e-05,53.2181,293.7711,90.6131,269.4967,4.311e-05,3.98e-06,0.0,0 STARLINK-3961,1 52637U 22052AR  23194.65643577  .00000398  00000-0  43110-4 0  9999,2 52637  53.2181 293.7711 0000931  90.6131 269.4967 15.08843568 65066,6917.869,95.437,540.379,539.09,0.0
52637.0,STARLINK-3961,PAYLOAD,2023-07-14 23:32:58,15.08842231,0.0001406,53.2178,287.8263,90.5983,269.5171,0.00010726,1.42e-05,0.0,0 STARLINK-3961,1 52637U 22052AR  23195.98123719  .00001420  00000-0  10726-3 0  9990,2 52637  53.2178 287.8263 0001406  90.5983 269.5171 15.08842231 65266,6917.874,95.437,540.711,538.766,0.0
52637.0,STARLINK-3961,PAYLOAD,2023-07-15 05:54:31,15.08837376,0.0001022,53.2177,286.6349,92.8385,267.2724,6.1421e-05,6.9e-06,0.0,0 STARLINK-3961,1 52637U 22052AR  23196.24620139  .00000690  00000-0  61421-4 0  9995,2 52637  53.2177 286.6349 0001022  92.8385 267.2724 15.08837376 65300,6917.888,95.438,540.46,539.046,0.0
52637.0,STARLINK-3961,PAYLOAD,2023-07-16 12:06:51,15.08839484,0.0001128,53.2173,280.9847,91.8577,268.2545,-2.357e-05,-6.63e-06,0.0,0 STARLINK-3961,1 52637U 22052AR  23197.50476394 -.00000663  00000-0 -23570-4 0  9992,2 52637  53.2173 280.9847 0001128  91.8577 268.2545 15.08839484 65499,6917.882,95.438,540.527,538.967,0.0
52637.0,STARLINK-3961,PAYLOAD,2023-07-16 21:39:09,15.08847653,0.0001069,53.2176,279.2003,93.9366,266.1748,2.6808e-05,1.39e-06,0.0,0 STARLINK-3961,1 52637U 22052AR  23197.90219624  .00000139  00000-0  26808-4 0  9990,2 52637  53.2176 279.2003 0001069  93.9366 266.1748 15.08847653 65556,6917.857,95.437,540.462,538.982,0.0
